[{"OBJECT_NAME":"STARLINK-3116","OBJECT_ID":"2021-082S","EPOCH":"2026-03-09T22:32:59.013888","MEAN_MOTION":14.97513823,"ECCENTRICITY":0.00026435,"INCLINATION":69.9979,"RA_OF_ASC_NODE":274.6179,"ARG_OF_PERICENTER":268.8124,"MEAN_ANOMALY":91.2732,"EPHEMERIS_TYPE":0,"CLASSIFICATION_TYPE":"U","NORAD_CAT_ID":49146,"ELEMENT_SET_NO":999,"REV_AT_EPOCH":24764,"BSTAR":0.00021077338,"MEAN_MOTION_DOT":2.371e-5,"MEAN_MOTION_DDOT":0},{"OBJECT_NAME":"TIROS 6","OBJECT_ID":"1962-047A","EPOCH":"2026-03-09T22:32:46.825440","MEAN_MOTION":14.95739722,"ECCENTRICITY":0.00128175,"INCLINATION":58.3026,"RA_OF_ASC_NODE":287.9356,"ARG_OF_PERICENTER":61.4296,"MEAN_ANOMALY":298.8041,"EPHEMERIS_TYPE":0,"CLASSIFICATION_TYPE":"U","NORAD_CAT_ID":397,"ELEMENT_SET_NO":999,"REV_AT_EPOCH":39747,"BSTAR":0.00017529326,"MEAN_MOTION_DOT":1.739e-5,"MEAN_MOTION_DDOT":0}]
